NORAD_CAT_ID,OBJECT_NAME,OBJECT_TYPE,EPOCH,MEAN_MOTION,ECCENTRICITY,INCLINATION,RA_OF_ASC_NODE,ARG_OF_PERICENTER,MEAN_ANOMALY,BSTAR,MEAN_MOTION_DOT,MEAN_MOTION_DDOT,TLE_LINE0,TLE_LINE1,TLE_LINE2,SEMIMAJOR_AXIS,PERIOD,APOGEE,PERIGEE,DECAYED
55769.0,STARLINK-5584,PAYLOAD,2023-07-16 03:37:58,14.99280966,0.0002491,69.9986,144.0249,264.2685,95.8191,0.000208,2.451e-05,0.0,0 STARLINK-5584,1 55769U 23028AE  23197.15136948  .00002451  00000-0  20800-3 0  9991,2 55769  69.9986 144.0249 0002491 264.2685  95.8191 14.99280966 21598,6947.254,96.046,570.849,567.388,0.0
55769.0,STARLINK-5584,PAYLOAD,2023-07-16 06:50:05,14.99357011,0.0001901,69.9988,143.6886,267.3661,92.7281,-0.0010798,-0.000133,0.0,0 STARLINK-5584,1 55769U 23028AE  23197.28478580 -.00013300  00000-0 -10798-2 0  9997,2 55769  69.9988 143.6886 0001901 267.3661  92.7281 14.99357011 21610,6947.019,96.041,570.204,567.563,0.0
55769.0,STARLINK-5584,PAYLOAD,2023-07-16 13:14:23,14.99297778,0.0002839,69.999,143.015,269.998,90.0854,-1.5364e-05,-2.82e-06,0.0,0 STARLINK-5584,1 55769U 23028AE  23197.55166500 -.00000282  00000-0 -15364-4 0  9994,2 55769  69.9990 143.0150 0002839 269.9980  90.0854 14.99297778 21658,6947.202,96.045,571.039,567.094,0.0
55769.0,STARLINK-5584,PAYLOAD,2023-07-17 18:04:17,14.98886272,0.0003519,69.999,139.9843,260.5901,99.486,-0.0042471,-0.00051134,0.0,0 STARLINK-5584,1 55769U 23028AE  23198.75297772 -.00051134  00000-0 -42471-2 0  9992,2 55769  69.9990 139.9843 0003519 260.5901  99.4860 14.98886272 21839,6948.473,96.071,572.783,567.893,0.0
55769.0,STARLINK-5584,PAYLOAD,2023-07-18 00:28:50,14.98758119,0.0003186,69.999,139.311,269.7679,90.3115,-0.0052659,-0.00063059,0.0,0 STARLINK-5584,1 55769U 23028AE  23199.02002854 -.00063059  00000-0 -52659-2 0  9996,2 55769  69.9990 139.3110 0003186 269.7679  90.3115 14.98758119 21878,6948.869,96.08,572.948,568.52,0.0
55769.0,STARLINK-5584,PAYLOAD,2023-07-18 18:06:04,14.98681727,0.0003434,69.9999,137.4581,264.5945,95.4822,-0.0050917,-0.00060876,0.0,0 STARLINK-5584,1 55769U 23028AE  23199.75422066 -.00060876  00000-0 -50917-2 0  9996,2 55769  69.9999 137.4581 0003434 264.5945  95.4822 14.98681727 21986,6949.105,96.084,573.357,568.584,0.0
55769.0,STARLINK-5584,PAYLOAD,2023-07-19 19:44:04,14.98378463,0.0003846,69.9994,134.7651,263.9026,96.1695,-0.00094131,-0.00011321,0.0,0 STARLINK-5584,1 55769U 23028AE  23200.82226873 -.00011321  00000-0 -94131-3 0  9993,2 55769  69.9994 134.7651 0003846 263.9026  96.1695 14.98378463 22144,6950.043,96.104,574.581,569.235,0.0
55769.0,STARLINK-5584,PAYLOAD,2023-07-20 06:00:00,14.98313995,0.000335,70.0014,133.6866,270.3088,236.3379,0.0023557,0.00028117,0.0,0 STARLINK-5584,1 55769U 23028AE  23201.25001157  .00028117  00000-0  23557-2 0  9999,2 55769  70.0014 133.6866 0003350 270.3088 236.3379 14.98313995 22209,6950.242,96.108,574.436,569.779,0.0
55769.0,STARLINK-5584,PAYLOAD,2023-07-20 22:00:00,14.98360448,0.0003337,70.0015,132.0059,265.1448,236.448,-0.0030151,-0.00035914,0.0,0 STARLINK-5584,1 55769U 23028AE  23201.91667824 -.00035914  00000-0 -30151-2 0  9994,2 55769  70.0015 132.0059 0003337 265.1448 236.4480 14.98360448 22304,6950.099,96.105,574.283,569.644,0.0
55769.0,STARLINK-5584,PAYLOAD,2023-07-21 05:22:53,14.98333711,0.000342,69.9994,131.2301,268.8706,91.2062,8.3084e-05,8.99e-06,0.0,0 STARLINK-5584,1 55769U 23028AE  23202.22422648  .00000899  00000-0  83084-4 0  9999,2 55769  69.9994 131.2301 0003420 268.8706  91.2062 14.98333711 22359,6950.181,96.107,574.423,569.669,0.0
55769.0,STARLINK-5584,PAYLOAD,2023-07-24 05:28:57,14.98319331,0.0002878,70.0001,123.6552,274.173,85.91,-4.3231e-05,-6.09e-06,0.0,0 STARLINK-5584,1 55769U 23028AE  23205.22843905 -.00000609  00000-0 -43231-4 0  9996,2 55769  70.0001 123.6552 0002878 274.1730  85.9100 14.98319331 22813,6950.226,96.108,574.091,570.091,0.0
55769.0,STARLINK-5584,PAYLOAD,2023-07-25 05:30:56,14.98335096,0.000322,69.9993,121.1315,268.4929,91.5861,-6.3509e-06,-1.69e-06,0.0,0 STARLINK-5584,1 55769U 23028AE  23206.22982603 -.00000169  00000-0 -63509-5 0  9998,2 55769  69.9993 121.1315 0003220 268.4929  91.5861 14.98335096 22967,6950.177,96.107,574.28,569.804,0.0
55769.0,STARLINK-5584,PAYLOAD,2023-07-26 03:56:49,14.98333441,0.0003231,69.9992,118.7753,270.3172,89.7617,1.4496e-05,8e-07,0.0,0 STARLINK-5584,1 55769U 23028AE  23207.16446693  .00000080  00000-0  14496-4 0  9996,2 55769  69.9992 118.7753 0003231 270.3172  89.7617 14.98333441 23105,6950.182,96.107,574.293,569.802,0.0
55769.0,STARLINK-5584,PAYLOAD,2023-07-27 03:58:50,14.98337639,0.0003149,69.9999,116.2495,271.5954,88.4845,4.0372e-05,3.89e-06,0.0,0 STARLINK-5584,1 55769U 23028AE  23208.16586038  .00000389  00000-0  40372-4 0  9999,2 55769  69.9999 116.2495 0003149 271.5954  88.4845 14.98337639 23244,6950.169,96.107,574.223,569.846,0.0
55769.0,STARLINK-5584,PAYLOAD,2023-07-27 18:24:03,14.98335276,0.0003102,69.9995,114.7346,274.2466,85.8339,-0.00022848,-2.819e-05,0.0,0 STARLINK-5584,1 55769U 23028AE  23208.76671056 -.00002819  00000-0 -22848-3 0  9999,2 55769  69.9995 114.7346 0003102 274.2466  85.8339 14.98335276 23339,6950.177,96.107,574.198,569.886,0.0
55769.0,STARLINK-5584,PAYLOAD,2023-07-27 21:36:20,14.98323685,0.0003159,69.9994,114.3981,269.4554,90.6243,-9.2799e-05,-1.2e-05,0.0,0 STARLINK-5584,1 55769U 23028AE  23208.90023267 -.00001200  00000-0 -92799-4 0  9996,2 55769  69.9994 114.3981 0003159 269.4554  90.6243 14.98323685 23367,6950.212,96.107,574.273,569.882,0.0
55769.0,STARLINK-5584,PAYLOAD,2023-07-28 00:48:36,14.98321743,0.0003247,69.9994,114.0617,272.107,87.9717,-9.4873e-05,-1.225e-05,0.0,0 STARLINK-5584,1 55769U 23028AE  23209.03375478 -.00001225  00000-0 -94873-4 0  9997,2 55769  69.9994 114.0617 0003247 272.1070  87.9717 14.98321743 23371,6950.218,96.108,574.34,569.827,0.0
55769.0,STARLINK-5584,PAYLOAD,2023-07-28 16:49:56,14.98367066,0.0003337,69.9992,112.378,263.7379,96.3399,-0.00062557,-7.557e-05,0.0,0 STARLINK-5584,1 55769U 23028AE  23209.70135249 -.00007557  00000-0 -62557-3 0  9998,2 55769  69.9992 112.3780 0003337 263.7379  96.3399 14.98367066 23478,6950.078,96.105,574.263,569.624,0.0
55769.0,STARLINK-5584,PAYLOAD,2023-07-29 18:28:05,14.98325122,0.0003096,69.9994,109.6853,267.0869,92.9936,9.1626e-05,1e-05,0.0,0 STARLINK-5584,1 55769U 23028AE  23210.76950727  .00001000  00000-0  91626-4 0  9997,2 55769  69.9994 109.6853 0003096 267.0869  92.9936 14.98325122 23637,6950.208,96.107,574.225,569.921,0.0
55769.0,STARLINK-5584,PAYLOAD,2023-07-30 18:30:06,14.98331958,0.0002942,69.9994,107.1602,263.9591,96.1232,-4.2287e-05,-5.98e-06,0.0,0 STARLINK-5584,1 55769U 23028AE  23211.77090705 -.00000598  00000-0 -42287-4 0  9992,2 55769  69.9994 107.1602 0002942 263.9591  96.1232 14.98331958 23783,6950.187,96.107,574.097,570.007,0.0
55769.0,STARLINK-5584,PAYLOAD,2023-07-31 18:32:07,14.98326111,0.0002743,69.9992,104.6354,263.8084,96.2762,2.1179e-05,1.6e-06,0.0,0 STARLINK-5584,1 55769U 23028AE  23212.77230783  .00000160  00000-0  21179-4 0  9995,2 55769  69.9992 104.6354 0002743 263.8084  96.2762 14.98326111 23933,6950.205,96.107,573.976,570.163,0.0
55769.0,STARLINK-5584,PAYLOAD,2023-08-01 18:34:08,14.98327815,0.0003026,69.9992,102.1104,267.0926,92.9887,-8.1728e-06,-1.91e-06,0.0,0 STARLINK-5584,1 55769U 23028AE  23213.77370728 -.00000191  00000-0 -81728-5 0  9993,2 55769  69.9992 102.1104 0003026 267.0926  92.9887 14.98327815 24085,6950.2,96.107,574.168,569.962,0.0
55769.0,STARLINK-5584,PAYLOAD,2023-08-02 18:36:08,14.98332162,0.0002889,69.9993,99.5852,263.245,96.838,6.6055e-05,6.95e-06,0.0,0 STARLINK-5584,1 55769U 23028AE  23214.77510127  .00000695  00000-0  66055-4 0  9995,2 55769  69.9993  99.5852 0002889 263.2450  96.8380 14.98332162 24230,6950.186,96.107,574.059,570.043,0.0
55769.0,STARLINK-5584,PAYLOAD,2023-08-03 02:36:48,14.9833795,0.0002798,69.999,98.743,263.2071,96.877,0.00013032,1.463e-05,0.0,0 STARLINK-5584,1 55769U 23028AE  23215.10889528  .00001463  00000-0  13032-3 0  9997,2 55769  69.9990  98.7430 0002798 263.2071  96.8770 14.98337950 24286,6950.168,96.106,573.978,570.089,0.0
55769.0,STARLINK-5584,PAYLOAD,2023-08-03 18:38:10,14.98324442,0.0002567,70.0,97.0612,260.2525,99.8344,-2.0714e-05,-3.4e-06,0.0,0 STARLINK-5584,1 55769U 23028AE  23215.77650708 -.00000340  00000-0 -20714-4 0  9997,2 55769  70.0000  97.0612 0002567 260.2525  99.8344 14.98324442 24383,6950.21,96.107,573.859,570.291,0.0
55769.0,STARLINK-5584,PAYLOAD,2023-08-04 18:40:10,14.98331563,0.000301,69.9989,94.5353,268.9244,91.157,-6.0589e-05,-8.16e-06,0.0,0 STARLINK-5584,1 55769U 23028AE  23216.77790502 -.00000816  00000-0 -60589-4 0  9997,2 55769  69.9989  94.5353 0003010 268.9244  91.1570 14.98331563 24532,6950.188,96.107,574.145,569.961,0.0
55769.0,STARLINK-5584,PAYLOAD,2023-08-05 18:42:11,14.98328502,0.0002907,69.9994,92.0109,264.3179,95.7649,6.3027e-05,6.59e-06,0.0,0 STARLINK-5584,1 55769U 23028AE  23217.77930195  .00000659  00000-0  63027-4 0  9995,2 55769  69.9994  92.0109 0002907 264.3179  95.7649 14.98328502 24683,6950.198,96.107,574.083,570.042,0.0
55769.0,STARLINK-5584,PAYLOAD,2023-08-06 09:07:27,14.98298131,0.0002887,69.9993,90.4955,272.0681,88.0147,-0.00029516,-3.61e-05,0.0,0 STARLINK-5584,1 55769U 23028AE  23218.38017457 -.00003610  00000-0 -29516-3 0  9996,2 55769  69.9993  90.4955 0002887 272.0681  88.0147 14.98298131 24776,6950.291,96.109,574.163,570.15,0.0
55769.0,STARLINK-5584,PAYLOAD,2023-08-06 17:08:09,14.98286631,0.0002905,69.9992,89.6545,270.5017,89.581,-0.00045597,-5.523e-05,0.0,0 STARLINK-5584,1 55769U 23028AE  23218.71399322 -.00005523  00000-0 -45597-3 0  9999,2 55769  69.9992  89.6545 0002905 270.5017  89.5810 14.98286631 24828,6950.327,96.11,574.211,570.173,0.0
55769.0,STARLINK-5584,PAYLOAD,2023-08-07 01:08:46,14.98328852,0.0002944,69.9991,88.812,267.3288,92.7534,2.6848e-05,2.27e-06,0.0,0 STARLINK-5584,1 55769U 23028AE  23219.04775660  .00000227  00000-0  26848-4 0  9992,2 55769  69.9991  88.8120 0002944 267.3288  92.7534 14.98328852 24870,6950.196,96.107,574.108,570.015,0.0
